{"type": "FeatureCollection", "features": [ {"type": "Feature", "properties": {"norad_id": 33799, "name": "COSMOS 2251 DEB", "group": "cosmos-2251-debris", "lat": 31.87311136293315, "lon": 103.93705044727491, "alt_km": 640.444454458644, "timestamp": "2025-12-06T16:45:43.114162+00:00", "meta": {"OBJECT_NAME": "COSMOS 2251 DEB", "OBJECT_ID": "1993-036AQ", "EPOCH": "2025-12-06T06:58:39.054720", "MEAN_MOTION": 14.7942159, "ECCENTRICITY": 0.00241041, "INCLINATION": 74.0324, "RA_OF_ASC_NODE": 94.4838, "ARG_OF_PERICENTER": 167.2959, "MEAN_ANOMALY": 215.9123, "EPHEMERIS_TYPE": 0, "CLASSIFICATION_TYPE": "U", "NORAD_CAT_ID": 33799, "ELEMENT_SET_NO": 999, "REV_AT_EPOCH": 88716, "BSTAR": 0.0022146826, "MEAN_MOTION_DOT": 0.00016616, "MEAN_MOTION_DDOT": 0}, "tle": {"line1": "1 33799U 93036AQ  25340.29072980  .00016616  00000+0  22147-2 0  9990", "line2": "2 33799  74.0324  94.4838 0024104 167.2959 215.9123 14.79421590887164"}}, "geometry": {"type": "Point", "coordinates": [103.93705044727491, 31.87311136293315]}}, {"type": "Feature", "properties": {"norad_id": 33805, "name": "COSMOS 2251 DEB", "group": "cosmos-2251-debris", "lat": -71.51966607278551, "lon": -96.13593261189362, "alt_km": 732.0509277809451, "timestamp": "2025-12-06T16:45:43.114173+00:00", "meta": {"OBJECT_NAME": "COSMOS 2251 DEB", "OBJECT_ID": "1993-036AW", "EPOCH": "2025-12-06T07:15:12.074112", "MEAN_MOTION": 14.57833613, "ECCENTRICITY": 0.00604698, "INCLINATION": 74.0305, "RA_OF_ASC_NODE": 323.5779, "ARG_OF_PERICENTER": 154.3699, "MEAN_ANOMALY": 206.0485, "EPHEMERIS_TYPE": 0, "CLASSIFICATION_TYPE": "U", "NORAD_CAT_ID": 33805, "ELEMENT_SET_NO": 999, "REV_AT_EPOCH": 89133, "BSTAR": 0.00047237666, "MEAN_MOTION_DOT": 2.188e-05, "MEAN_MOTION_DDOT": 0}, "tle": {"line1": "1 33805U 93036AW  25340.30222308  .00002188  00000+0  47238-3 0  9999", "line2": "2 33805  74.0305 323.5779 0060469 154.3699 206.0485 14.57833613891338"}}, "geometry": {"type": "Point", "coordinates": [-96.13593261189362, -71.51966607278551]}}, {"type": "Feature", "properties": {"norad_id": 33811, "name": "COSMOS 2251 DEB", "group": "cosmos-2251-debris", "lat": -19.063121628370897, "lon": 140.9355453800151, "alt_km": 576.761648261845, "timestamp": "2025-12-06T16:45:43.114183+00:00", "meta": {"OBJECT_NAME": "COSMOS 2251 DEB", "OBJECT_ID": "1993-036BC", "EPOCH": "2025-12-06T04:46:17.032800", "MEAN_MOTION": 15.0494798, "ECCENTRICITY": 0.0030817, "INCLINATION": 73.8376, "RA_OF_ASC_NODE": 316.219, "ARG_OF_PERICENTER": 38.1197, "MEAN_ANOMALY": 335.879, "EPHEMERIS_TYPE": 0, "CLASSIFICATION_TYPE": "U", "NORAD_CAT_ID": 33811, "ELEMENT_SET_NO": 999, "REV_AT_EPOCH": 89920, "BSTAR": 0.0018988886, "MEAN_MOTION_DOT": 0.00027263, "MEAN_MOTION_DDOT": 0}, "tle": {"line1": "1 33811U 93036BC  25340.19880825  .00027263  00000+0  18989-2 0  9998", "line2": "2 33811  73.8376 316.2190 0030817  38.1197 335.8790 15.04947980899202"}}, "geometry": {"type": "Point", "coordinates": [140.9355453800151, -19.063121628370897]}}, {"type": "Feature", "properties": {"norad_id": 33815, "name": "COSMOS 2251 DEB", "group": "cosmos-2251-debris", "lat": 10.556009022926188, "lon": -167.67327519700936, "alt_km": 520.9795054935867, "timestamp": "2025-12-06T16:45:43.114195+00:00", "meta": {"OBJECT_NAME": "COSMOS 2251 DEB", "OBJECT_ID": "1993-036BG", "EPOCH": "2025-12-05T15:38:33.645984", "MEAN_MOTION": 15.15669665, "ECCENTRICITY": 0.00039828, "INCLINATION": 73.9545, "RA_OF_ASC_NODE": 191.4421, "ARG_OF_PERICENTER": 238.2627, "MEAN_ANOMALY": 183.6726, "EPHEMERIS_TYPE": 0, "CLASSIFICATION_TYPE": "U", "NORAD_CAT_ID": 33815, "ELEMENT_SET_NO": 999, "REV_AT_EPOCH": 88263, "BSTAR": 0.0093696602, "MEAN_MOTION_DOT": 0.00182935, "MEAN_MOTION_DDOT": 0}, "tle": {"line1": "1 33815U 93036BG  25339.65177831  .00182935  00000+0  93697-2 0  9994", "line2": "2 33815  73.9545 191.4421 0003982 238.2627 183.6726 15.15669665882639"}}, "geometry": {"type": "Point", "coordinates": [-167.67327519700936, 10.556009022926188]}}, {"type": "Feature", "properties": {"norad_id": 33816, "name": "COSMOS 2251 DEB", "group": "cosmos-2251-debris", "lat": -64.21869295116548, "lon": 78.89604152018879, "alt_km": 1147.4605644824842, "timestamp": "2025-12-06T16:45:43.114205+00:00", "meta": {"OBJECT_NAME": "COSMOS 2251 DEB", "OBJECT_ID": "1993-036BH", "EPOCH": "2025-12-05T18:31:33.740256", "MEAN_MOTION": 13.81768007, "ECCENTRICITY": 0.02651218, "INCLINATION": 73.894, "RA_OF_ASC_NODE": 117.2049, "ARG_OF_PERICENTER": 131.4901, "MEAN_ANOMALY": 230.9314, "EPHEMERIS_TYPE": 0, "CLASSIFICATION_TYPE": "U", "NORAD_CAT_ID": 33816, "ELEMENT_SET_NO": 999, "REV_AT_EPOCH": 84577, "BSTAR": 0.00097673267, "MEAN_MOTION_DOT": 1.344e-05, "MEAN_MOTION_DDOT": 0}, "tle": {"line1": "1 33816U 93036BH  25339.77191829  .00001344  00000+0  97673-3 0  9994", "line2": "2 33816  73.8940 117.2049 0265121 131.4901 230.9314 13.81768007845778"}}, "geometry": {"type": "Point", "coordinates": [78.89604152018879, -64.21869295116548]}}, {"type": "Feature", "properties": {"norad_id": 33818, "name": "COSMOS 2251 DEB", "group": "cosmos-2251-debris", "lat": 3.3272376063382487, "lon": 179.67305566254882, "alt_km": 552.0364612928024, "timestamp": "2025-12-06T16:45:43.114215+00:00", "meta": {"OBJECT_NAME": "COSMOS 2251 DEB", "OBJECT_ID": "1993-036BK", "EPOCH": "2025-12-06T07:59:24.298368", "MEAN_MOTION": 15.11775934, "ECCENTRICITY": 0.00285466, "INCLINATION": 74.075, "RA_OF_ASC_NODE": 179.4763, "ARG_OF_PERICENTER": 170.5474, "MEAN_ANOMALY": 4.7673, "EPHEMERIS_TYPE": 0, "CLASSIFICATION_TYPE": "U", "NORAD_CAT_ID": 33818, "ELEMENT_SET_NO": 999, "REV_AT_EPOCH": 89765, "BSTAR": 0.0037711549, "MEAN_MOTION_DOT": 0.00065544, "MEAN_MOTION_DDOT": 0}, "tle": {"line1": "1 33818U 93036BK  25340.33292012  .00065544  00000+0  37712-2 0  9995", "line2": "2 33818  74.0750 179.4763 0028546 170.5474   4.7673 15.11775934897653"}}, "geometry": {"type": "Point", "coordinates": [179.67305566254882, 3.3272376063382487]}}, {"type": "Feature", "properties": {"norad_id": 33819, "name": "COSMOS 2251 DEB", "group": "cosmos-2251-debris", "lat": 59.94789755541762, "lon": -109.88127553117421, "alt_km": 718.3109718906571, "timestamp": "2025-12-06T16:45:43.114225+00:00", "meta": {"OBJECT_NAME": "COSMOS 2251 DEB", "OBJECT_ID": "1993-036BL", "EPOCH": "2025-12-06T03:47:53.357280", "MEAN_MOTION": 14.32187768, "ECCENTRICITY": 0.00888264, "INCLINATION": 74.1795, "RA_OF_ASC_NODE": 221.7497, "ARG_OF_PERICENTER": 85.0641, "MEAN_ANOMALY": 75.5721, "EPHEMERIS_TYPE": 0, "CLASSIFICATION_TYPE": "U", "NORAD_CAT_ID": 33819, "ELEMENT_SET_NO": 999, "REV_AT_EPOCH": 87401, "BSTAR": 0.0012090591, "MEAN_MOTION_DOT": 3.379e-05, "MEAN_MOTION_DDOT": 0}, "tle": {"line1": "1 33819U 93036BL  25340.15825645  .00003379  00000+0  12091-2 0  9991", "line2": "2 33819  74.1795 221.7497 0088826  85.0641  75.5721 14.32187768874011"}}, "geometry": {"type": "Point", "coordinates": [-109.88127553117421, 59.94789755541762]}}, {"type": "Feature", "properties": {"norad_id": 33821, "name": "COSMOS 2251 DEB", "group": "cosmos-2251-debris", "lat": -61.13643636814548, "lon": 6.909124400367929, "alt_km": 477.0647041116554, "timestamp": "2025-12-06T16:45:43.114236+00:00", "meta": {"OBJECT_NAME": "COSMOS 2251 DEB", "OBJECT_ID": "1993-036BN", "EPOCH": "2025-12-05T22:22:03.983520", "MEAN_MOTION": 15.24699557, "ECCENTRICITY": 0.00536172, "INCLINATION": 74.0286, "RA_OF_ASC_NODE": 157.2217, "ARG_OF_PERICENTER": 192.4249, "MEAN_ANOMALY": 167.5634, "EPHEMERIS_TYPE": 0, "CLASSIFICATION_TYPE": "U", "NORAD_CAT_ID": 33821, "ELEMENT_SET_NO": 999, "REV_AT_EPOCH": 74897, "BSTAR": 0.0015425628, "MEAN_MOTION_DOT": 0.00039923, "MEAN_MOTION_DDOT": 0}, "tle": {"line1": "1 33821U 93036BN  25339.93199055  .00039923  00000+0  15426-2 0  9996", "line2": "2 33821  74.0286 157.2217 0053617 192.4249 167.5634 15.24699557748974"}}, "geometry": {"type": "Point", "coordinates": [6.909124400367929, -61.13643636814548]}}, {"type": "Feature", "properties": {"norad_id": 33822, "name": "COSMOS 2251 DEB", "group": "cosmos-2251-debris", "lat": -48.553317741756004, "lon": -174.52346278879577, "alt_km": 793.4548035456246, "timestamp": "2025-12-06T16:45:43.114247+00:00", "meta": {"OBJECT_NAME": "COSMOS 2251 DEB", "OBJECT_ID": "1993-036BP", "EPOCH": "2025-12-06T02:29:09.799296", "MEAN_MOTION": 14.13021705, "ECCENTRICITY": 0.01538119, "INCLINATION": 74.0696, "RA_OF_ASC_NODE": 205.3967, "ARG_OF_PERICENTER": 253.2529, "MEAN_ANOMALY": 269.501, "EPHEMERIS_TYPE": 0, "CLASSIFICATION_TYPE": "U", "NORAD_CAT_ID": 33822, "ELEMENT_SET_NO": 999, "REV_AT_EPOCH": 85960, "BSTAR": 0.0020952539, "MEAN_MOTION_DOT": 4.35e-05, "MEAN_MOTION_DDOT": 0}, "tle": {"line1": "1 33822U 93036BP  25340.10358564  .00004350  00000+0  20953-2 0  9997", "line2": "2 33822  74.0696 205.3967 0153811 253.2529 269.5010 14.13021705859606"}}, "geometry": {"type": "Point", "coordinates": [-174.52346278879577, -48.553317741756004]}}, {"type": "Feature", "properties": {"norad_id": 33823, "name": "COSMOS 2251 DEB", "group": "cosmos-2251-debris", "lat": 69.34432468059859, "lon": -149.6646455808639, "alt_km": 1022.8082935511256, "timestamp": "2025-12-06T16:45:43.114257+00:00", "meta": {"OBJECT_NAME": "COSMOS 2251 DEB", "OBJECT_ID": "1993-036BQ", "EPOCH": "2025-12-06T06:57:46.821600", "MEAN_MOTION": 13.98926386, "ECCENTRICITY": 0.02092493, "INCLINATION": 73.8087, "RA_OF_ASC_NODE": 160.6335, "ARG_OF_PERICENTER": 286.8305, "MEAN_ANOMALY": 253.6025, "EPHEMERIS_TYPE": 0, "CLASSIFICATION_TYPE": "U", "NORAD_CAT_ID": 33823, "ELEMENT_SET_NO": 999, "REV_AT_EPOCH": 85519, "BSTAR": 0.001285827, "MEAN_MOTION_DOT": 2.212e-05, "MEAN_MOTION_DDOT": 0}, "tle": {"line1": "1 33823U 93036BQ  25340.29012525  .00002212  00000+0  12858-2 0  9992", "line2": "2 33823  73.8087 160.6335 0209249 286.8305 253.6025 13.98926386855192"}}, "geometry": {"type": "Point", "coordinates": [-149.6646455808639, 69.34432468059859]}}]}